{"type": "FeatureCollection", "features": [ {"type": "Feature", "properties": {"norad_id": 47068, "name": "COSMOS 2251 DEB", "group": "cosmos-2251-debris", "lat": -24.239093453484834, "lon": -147.73536651822846, "alt_km": 709.2963136124363, "timestamp": "2025-12-04T03:47:54.940663+00:00", "meta": {"OBJECT_NAME": "COSMOS 2251 DEB", "OBJECT_ID": "1993-036BXY", "EPOCH": "2025-12-03T09:44:17.538720", "MEAN_MOTION": 14.53041706, "ECCENTRICITY": 0.0018474, "INCLINATION": 74.0247, "RA_OF_ASC_NODE": 221.0956, "ARG_OF_PERICENTER": 308.5367, "MEAN_ANOMALY": 51.4138, "EPHEMERIS_TYPE": 0, "CLASSIFICATION_TYPE": "U", "NORAD_CAT_ID": 47068, "ELEMENT_SET_NO": 999, "REV_AT_EPOCH": 61621, "BSTAR": 0.0013184, "MEAN_MOTION_DOT": 5.433e-05, "MEAN_MOTION_DDOT": 0}, "tle": {"line1": "1 47068U 93036BXY 25337.40575855  .00005433  00000+0  13184-2 0  9998", "line2": "2 47068  74.0247 221.0956 0018474 308.5367  51.4138 14.53041706616211"}}, "geometry": {"type": "Point", "coordinates": [-147.73536651822846, -24.239093453484834]}}, {"type": "Feature", "properties": {"norad_id": 47073, "name": "COSMOS 2251 DEB", "group": "cosmos-2251-debris", "lat": -10.62155589409282, "lon": 39.84231363940734, "alt_km": 831.8698582599918, "timestamp": "2025-12-04T03:47:54.940673+00:00", "meta": {"OBJECT_NAME": "COSMOS 2251 DEB", "OBJECT_ID": "1993-036BYD", "EPOCH": "2025-11-28T23:48:38.837952", "MEAN_MOTION": 14.04684181, "ECCENTRICITY": 0.01626495, "INCLINATION": 74.0833, "RA_OF_ASC_NODE": 225.7586, "ARG_OF_PERICENTER": 267.1836, "MEAN_ANOMALY": 91.0675, "EPHEMERIS_TYPE": 0, "CLASSIFICATION_TYPE": "U", "NORAD_CAT_ID": 47073, "ELEMENT_SET_NO": 999, "REV_AT_EPOCH": 60168, "BSTAR": 0.0003803633, "MEAN_MOTION_DOT": 6.6e-06, "MEAN_MOTION_DDOT": 0}, "tle": {"line1": "1 47073U 93036BYD 25332.99211618  .00000660  00000+0  38036-3 0  9998", "line2": "2 47073  74.0833 225.7586 0162649 267.1836  91.0675 14.04684181601680"}}, "geometry": {"type": "Point", "coordinates": [39.84231363940734, -10.62155589409282]}}, {"type": "Feature", "properties": {"norad_id": 47074, "name": "COSMOS 2251 DEB", "group": "cosmos-2251-debris", "lat": 61.03043015976467, "lon": 113.3934436589891, "alt_km": 817.4312766207131, "timestamp": "2025-12-04T03:47:54.940683+00:00", "meta": {"OBJECT_NAME": "COSMOS 2251 DEB", "OBJECT_ID": "1993-036BYE", "EPOCH": "2025-12-03T18:02:52.456992", "MEAN_MOTION": 14.35498744, "ECCENTRICITY": 0.0143477, "INCLINATION": 74.091, "RA_OF_ASC_NODE": 325.1457, "ARG_OF_PERICENTER": 355.2449, "MEAN_ANOMALY": 179.085, "EPHEMERIS_TYPE": 0, "CLASSIFICATION_TYPE": "U", "NORAD_CAT_ID": 47074, "ELEMENT_SET_NO": 999, "REV_AT_EPOCH": 2553, "BSTAR": 0.0029812, "MEAN_MOTION_DOT": 9.625e-05, "MEAN_MOTION_DDOT": 0}, "tle": {"line1": "1 47074U 93036BYE 25337.75199603  .00009625  00000+0  29812-2 0  9998", "line2": "2 47074  74.0910 325.1457 0143477 355.2449 179.0850 14.35498744 25534"}}, "geometry": {"type": "Point", "coordinates": [113.3934436589891, 61.03043015976467]}}, {"type": "Feature", "properties": {"norad_id": 47116, "name": "COSMOS 2251 DEB", "group": "cosmos-2251-debris", "lat": -16.185724073474272, "lon": 82.88884801983471, "alt_km": 593.5107092007374, "timestamp": "2025-12-04T03:47:54.940694+00:00", "meta": {"OBJECT_NAME": "COSMOS 2251 DEB", "OBJECT_ID": "1993-036BYJ", "EPOCH": "2025-11-28T02:40:22.126944", "MEAN_MOTION": 14.97052334, "ECCENTRICITY": 0.00224176, "INCLINATION": 74.0247, "RA_OF_ASC_NODE": 270.3586, "ARG_OF_PERICENTER": 5.4926, "MEAN_ANOMALY": 12.2387, "EPHEMERIS_TYPE": 0, "CLASSIFICATION_TYPE": "U", "NORAD_CAT_ID": 47116, "ELEMENT_SET_NO": 999, "REV_AT_EPOCH": 59292, "BSTAR": 0.0024991708, "MEAN_MOTION_DOT": 0.00029033, "MEAN_MOTION_DDOT": 0}, "tle": {"line1": "1 47116U 93036BYJ 25332.11136721  .00029033  00000+0  24992-2 0  9991", "line2": "2 47116  74.0247 270.3586 0022417   5.4926  12.2387 14.97052334592926"}}, "geometry": {"type": "Point", "coordinates": [82.88884801983471, -16.185724073474272]}}, {"type": "Feature", "properties": {"norad_id": 53093, "name": "COSMOS 2251 DEB", "group": "cosmos-2251-debris", "lat": -46.8440328497766, "lon": -60.41561722056343, "alt_km": 758.0279337859565, "timestamp": "2025-12-04T03:47:54.940704+00:00", "meta": {"OBJECT_NAME": "COSMOS 2251 DEB", "OBJECT_ID": "1993-036BYP", "EPOCH": "2025-12-03T09:42:31.468032", "MEAN_MOTION": 14.4178878, "ECCENTRICITY": 0.001868, "INCLINATION": 74.036, "RA_OF_ASC_NODE": 318.7566, "ARG_OF_PERICENTER": 38.1854, "MEAN_ANOMALY": 322.0621, "EPHEMERIS_TYPE": 0, "CLASSIFICATION_TYPE": "U", "NORAD_CAT_ID": 53093, "ELEMENT_SET_NO": 999, "REV_AT_EPOCH": 17591, "BSTAR": 0.0012928, "MEAN_MOTION_DOT": 4.208e-05, "MEAN_MOTION_DDOT": 0}, "tle": {"line1": "1 53093U 93036BYP 25337.40453088  .00004208  00000+0  12928-2 0  9990", "line2": "2 53093  74.0360 318.7566 0018680  38.1854 322.0621 14.41788780175917"}}, "geometry": {"type": "Point", "coordinates": [-60.41561722056343, -46.8440328497766]}}]}